COSMOS 2433 (720)       
1 32275U 07052A   22048.30046309 -.00000050  00000+0  00000+0 0  9998
2 32275  66.0842   8.6564 0004576 271.8390 331.5347  2.13104076111405
COSMOS 2432 (719)       
1 32276U 07052B   22048.83730781 -.00000048  00000+0  00000+0 0  9998
2 32276  66.0971   8.7369 0012040 322.4451 281.3966  2.13103420111411
COSMOS 2434 (721)       
1 32393U 07065A   22047.67130479  .00000084  00000+0  00000+0 0  9990
2 32393  64.4056 245.5515 0004981  73.7584 296.0687  2.13103078110106
COSMOS 2436 (723)       
1 32395U 07065C   22048.91142102  .00000081  00000+0  00000+0 0  9993
2 32395  64.4148 245.5664 0016692   7.5810   9.5699  2.13102859110065
COSMOS 2456 (730)       
1 36111U 09070A   22048.76110816  .00000032  00000+0  00000+0 0  9997
2 36111  64.3229 125.1647 0003603 302.9191 350.2156  2.13099076 94780
COSMOS 2457 (733)       
1 36112U 09070B   22048.86960741  .00000032  00000+0  00000+0 0  9999
2 36112  64.3066 125.0408 0005424 171.4540 331.2609  2.13101269 94795
COSMOS 2461 (735)       
1 36401U 10007B   22048.86299587 -.00000049  00000+0  00000+0 0  9994
2 36401  65.9697   7.4914 0021080   0.4433 172.0233  2.13103697 93145
COSMOS 2460 (732)       
1 36402U 10007C   22049.13878946 -.00000048  00000+0  00000+0 0  9997
2 36402  65.9578   7.4363 0002391 303.6622  27.6759  2.13106397 93142
COSMOS 2464 (736)       
1 37139U 10041C   22048.78199175  .00000080  00000+0  00000+0 0  9998
2 37139  64.0058 244.6481 0030364  14.0440 346.9926  2.13100792 89209
COSMOS 2476 (744)       
1 37867U 11064A   22048.89352321  .00000033  00000+0  00000+0 0  9996
2 37867  64.6145 126.4694 0021554 235.6374  63.5532  2.13101820 80132
COSMOS 2477 (745)       
1 37868U 11064B   22048.88806225  .00000033  00000+0  00000+0 0  9993
2 37868  64.6208 126.5345 0019309 238.0179 235.1704  2.13101762 80090
COSMOS 2475 (743)       
1 37869U 11064C   22048.69279659  .00000032  00000+0  00000+0 0  9997
2 37869  64.6281 126.5469 0023328 255.8708  25.4245  2.13101900 80094
COSMOS 2485 (747)       
1 39155U 13019A   22048.82983574  .00000033  00000+0  00000+0 0  9993
2 39155  64.7794 126.8739 0022246 231.5996  63.1493  2.13101765 68601
COSMOS 2492 (754)       
1 39620U 14012A   22048.69872255 -.00000050  00000+0  00000+0 0  9992
2 39620  65.8459   7.1492 0015246 320.2461 268.5037  2.13103180 61555
COSMOS 2500 (755)       
1 40001U 14032A   22048.74515382 -.00000050  00000+0  00000+0 0  9990
2 40001  65.7849   7.0167 0006472 225.6105 257.7359  2.13102413 59770
COSMOS 2501 (702K)      
1 40315U 14075A   22048.30012209  .00000080  00000+0  00000+0 0  9999
2 40315  63.7139 245.3802 0016217 205.7123 103.6392  2.13101472 56168
COSMOS 2514 (751)       
1 41330U 16008A   22048.70407088 -.00000051  00000+0  00000+0 0  9991
2 41330  65.5853   6.7397 0010322 226.8680  48.5723  2.13102777 46938
COSMOS 2516 (753)       
1 41554U 16032A   22048.67080854  .00000080  00000+0  00000+0 0  9991
2 41554  63.9387 245.6092 0011846 213.1850 297.1135  2.13106004 44547
COSMOS 2522 (752)       
1 42939U 17055A   22047.77306743  .00000083  00000+0  00000+0 0  9996
2 42939  64.1747 245.9997 0004934 246.1225 154.1969  2.13101986 34288
COSMOS 2527 (756)       
1 43508U 18053A   22049.08708495  .00000034  00000+0  00000+0 0  9990
2 43508  64.9418 126.8410 0008398 229.1325 131.3643  2.13102527 28608
COSMOS 2529 (757)       
1 43687U 18086A   22048.79645586  .00000081  00000+0  00000+0 0  9994
2 43687  64.3883 246.2485 0007385 278.0222 142.9211  2.13102110 25614
COSMOS 2534 (758)       
1 44299U 19030A   22048.67165882  .00000081  00000+0  00000+0 0  9997
2 44299  64.4598 246.1259 0010583 298.4007 161.4502  2.13102099 21258
COSMOS 2544 (759)       
1 44850U 19088A   22048.72306588  .00000032  00000+0  00000+0 0  9995
2 44850  64.9272 126.7078 0012422 258.1388 226.6516  2.13102321 17023
COSMOS 2545 (760)       
1 45358U 20018A   22048.63699749 -.00000052  00000+0  00000+0 0  9991
2 45358  64.9221   7.4494 0010648 259.0638   9.3543  2.13102659 14975
COSMOS 2547 (705K)      
1 46805U 20075A   22048.76140676  .00000081  00000+0  00000+0 0  9997
2 46805  64.6820 245.5124 0005172 249.1068 326.8674  2.13102961 10225
